#dP2021  3 31 12  0  0.00000000      96 __u+U ITR00 EXT  IAC
## 2151 302400.00000000   900.00000000 59304 0.5000000000000
+  116   C06C07C08C09C10C11C12C13C14C16C19C20C21C22C23C24C25
+        C26C27C28C29C30C32C33C34C35C36C37C38C39C41C42C43C44
+        C45C46E01E02E03E04E05E07E08E09E11E12E13E14E15E18E19
+        E21E24E25E26E27E30E31E33E36G01G02G03G04G05G06G07G08
+        G09G10G11G12G13G14G15G16G17G18G19G20G21G22G23G24G25
+        G26G27G28G29G30G31G32J01J02J03R01R02R03R04R05R07R08
+        R09R11R12R13R14R15R16R17R18R19R20R21R22R24  0  0  0
++        12 10 10 12 10 10  9 10  9 11  8  9 10  9  9  7  8
++         7  9  9  9  9  8  8  9  8  8  9 10 11 10  8 10 11
++        10 10  9  8  8  7  8  8  9  7  9  8  9 10  8  7  9
++         7  8  8  7  9  7  7  8  8  7  8  7  6  7  7  9  7
++         7  7  7  8  9  8  8  8  8  7  8  9  8  8  7  8  7
++         6  7  7  9  7  8  8 10 11  8  9  9  9  9  8  8  8
++        10  8  7  8  8  9  7  9  9  8  9  7  9  9  0  0  0
%c M  cc GPS ccc cccc cccc cccc cccc ccccc ccccc ccccc ccccc
%c cc cc ccc ccc cccc cccc cccc cccc ccccc ccccc ccccc ccccc
%f  0.0000000  0.000000000  0.00000000000  0.000000000000000
%f  0.0000000  0.000000000  0.00000000000  0.000000000000000
%i    0    0    0    0      0      0      0      0         0
%i    0    0    0    0      0      0      0      0         0
/* IAC                                ULTRA-RAPID PREDICTION
/* S/V CLOCKS ARE ALIGNED TO GNSS TIME                      
/* G:C1WC2W R:C1PC2P E:C1XC5X C:C2IC6I J:C1CC2S             
/* PCV:IGS14_2134 OL/AL:FES2004  NONE     YN ORB:CoN CLK:CoN
*  2021 04 01 10  0  0.00000000
PC06 -14518.890616  20376.281595 -33523.844970    233.664140
PC07 -23347.781691  33664.214999   9002.404673    -75.620621
PC08  -7507.688282  34122.090054  23983.069859   -895.225316
PC09   2263.298449  26172.865746 -32598.378456    627.366847
PC10 -10895.284988  34934.845123  20767.974489    -63.053045
PC11 -19763.050876   3792.894104  19378.917190   -835.088223
PC12 -25649.521235  -9953.282677   4662.169529    909.248437
PC13   1466.774737  40683.133383  11552.350449    203.751399
PC14 -24084.179162  13832.315954   2407.170689    355.573366
PC16  -9641.027010  22093.445663 -34477.162820   -761.731686
PC19  19489.578608 -18705.720248   7069.106834    782.651163
PC20  24799.896463  -8093.677221  -9930.833326   -942.931990
PC21 -15455.814107  -7972.631006  21842.317418   -916.710552
PC22   2778.624396 -18788.060186  20464.166834   -942.599409
PC23   1904.241388  27830.588627    834.952358   -882.536779
PC24 -16197.117845   1191.142880 -22705.309526   -799.858204
PC25  -9309.142757  21486.634174 -15202.814096   -939.434459
PC26 -13439.545967 -17540.100258 -17031.364961    927.228559
PC27  22670.807481  15577.585815   4614.162548    508.143722
PC28   7306.233198  18861.924034  19226.688983    -91.558827
PC29  11861.438149 -11545.397353 -22473.175206    372.813967
PC30  24947.933600   2630.312038 -12201.403411    456.847130
PC32  15542.727395   7824.166169 -21797.813252   -927.380087
PC33 -19442.255242  18757.980284  -6943.576919   -943.147241
PC34 -24746.125793  -2160.812502  12736.980979   -705.920444
PC35  -7631.512646 -18624.900064 -19350.967103   -347.712822
PC36  10004.889599 -20972.502325  15471.732678   -735.462941
PC37  12673.614661  18657.810203  16457.208855   -886.891717
PC38  -6161.061142  36516.055520  20296.521316    139.444805
PC39  -6442.948019  23226.847076 -34586.900961     29.889392
PC41  -3010.856689  18891.281340 -20265.909899   -937.738123
PC42 -24716.394949   7453.357907  10625.870817   -931.275901
PC43 -12472.255844  11253.066965  22280.997141   -665.630968
PC44 -23085.782989 -14960.177782  -4819.969379    115.259097
PC45  -2018.659443 -27805.667297   -923.998654    402.077341
PC46  15998.932848  -2231.329994  22755.430397    336.426257
PE01   4773.670905  21645.464085  19618.218657  -1077.705600
PE02  -4883.502102 -21539.922018 -19702.613621    209.063147
PE03 -13542.389347 -14294.675121  22098.739187   -415.270278
PE04  28019.323885   3377.749589  -8918.730663   -740.964235
PE05   9089.291001 -16972.795735  22488.227099   -292.376842
PE07 -26194.051602   9720.634788  -9752.902384   -520.085633
PE08 -28132.322484  -2984.666503   8693.017164   6024.370590
PE09  26071.924440  -9897.819697   9951.410028   5715.571780
PE11  15018.015660  -6757.335648 -24598.567179   6142.634855
PE12  21899.975404  13207.964929 -14879.033541   5281.594176
PE13 -15227.279039   6307.635370  24594.987061    414.390142
PE14  25589.061709  -9523.283283 -16310.770767  -1381.753893
PE15 -21925.394044 -13149.494317  14936.963056    821.714326
PE18 -23307.971241   2058.427612   7367.955925  -1511.340875
PE19  11137.786421  14972.553027 -22968.127913    241.264374
PE21  -9342.366661  27792.029411   4086.627730   -656.852657
PE24  18831.480553 -17292.088273  14878.327058   -823.608323
PE25   9460.767956 -27768.682155  -3911.712539   -529.882401
PE26    865.745233  22499.222219  19218.574243   1975.388566
PE27 -18592.394000  18034.940929 -14340.602106     -1.828146
PE30 -16564.940085  -3303.709125 -24322.105136   3060.472215
PE31  16854.104515   2274.271356  24228.309797   -479.729226
PE33  15696.511049  24840.412483   3513.412291   -467.099302
PE36   -450.958301 -22046.265577 -19747.354523   -187.748937
PG01 -16624.534888  -4554.530177  20059.660300    727.414224
PG02  13757.159097  22560.183586  -1771.330754   -591.613133
PG03 -19188.556610   6902.728063  16878.262809   -124.396360
PG04 -26367.153278  -1155.711808  -3239.676180   -189.480294
PG05  11642.574940  10229.297416 -21711.812963    -37.840452
PG06   4706.574939  24589.672981   8843.383902      4.196687
PG07 -11494.510802  10832.058465 -20942.323133    108.416249
PG08 -25581.555981  -5662.071911  -5259.758715    -15.901319
PG09 -22087.409667   7389.550403 -12842.878469   -335.639779
PG10  10349.548364 -23233.344337   7271.715580    -92.968990
PG11 -22398.153746  -5056.521842  12595.324165     17.302502
PG12  18506.364406  -2582.234084  18563.152887    -21.903497
PG13  19629.011948  13225.886985 -12313.575317    114.636509
PG14 -12242.636125  22720.066849   6226.614813     98.570886
PG15  26067.198193   3459.595027  -5263.305827   -159.195103
PG16  -7958.803882 -13366.364198 -21709.584266   -302.880045
PG17  -6436.500244  13914.879761  22115.355672    419.244496
PG18   8895.930356 -14666.859259 -20267.998724    351.429601
PG19   3150.850537  15183.451156  21293.939623    -18.747257
PG20  17688.494644 -15912.887610 -11477.685507    523.620468
PG21 -18929.429630 -11148.068673  15971.757656    107.646431
PG22 -16392.274283  -2533.481878  20910.985065   -647.884461
PG23  16791.438012 -20206.315497  -3754.382615    115.602239
PG24  18735.967925   9226.587270  16386.927202      0.349043
PG25  19085.744616 -15514.532199   9394.364855    110.093270
PG26   -929.895770 -20654.324054 -16580.119929     66.114443
PG27 -18047.601373 -12291.784724 -15545.484495   -104.719150
PG28 -11005.116651  22576.509910   9484.206077    593.462019
PG29  22025.127141  -5573.285796 -13838.297834   -322.227083
PG30  -2504.552049  21810.059106 -14735.861564   -406.687952
PG31  -6134.562188 -24900.605044   5819.358725   -109.011441
PG32   3684.610145 -15004.695707  21697.998762     21.913571
PJ01 -35810.857760  19823.299655  -5504.110195   -360.588699
PJ02 -23640.568992  31719.968396 -10140.587236      4.510675
PJ03 -27967.137919  21738.059432  27925.874963     -2.621151
PR01 -16319.504236  14244.039282 -13452.547225     77.224592
PR02   3910.384981  10151.903526 -23026.642376    473.110807
PR03  19398.633516    453.919901 -16481.415515     33.415894
PR04  23699.928363  -9393.867795   -739.788842     80.426933
PR05  14815.997955 -13886.793708  15437.662746     69.204203
PR07 -19839.867023    -92.041094  16099.587976    -42.567772
PR08 -23722.896764   9371.680581    826.702867    -58.290682
PR09  -2739.747248 -22882.820412 -10995.267744    -14.247727
PR11 -10936.500276  10464.217531 -20522.079771      1.652869
PR12  -6169.724843  23875.336783  -6552.777057    217.277453
PR13   2377.676942  23103.895799  10529.007956    -52.806675
PR14   9676.521006   8379.240434  22068.186606     62.669697
PR15  11164.072796 -10718.658912  20289.976471    104.611010
PR16   5249.587896 -24249.715339   5594.488809    -13.245904
PR17  21083.475616  13567.886037  -4777.102076    412.679162
PR18  16817.151943   2332.175635 -18997.919086     71.738492
PR19   4641.525407  -9517.726040 -23205.770603   -138.017267
PR20 -12683.623561 -17938.212711 -12997.420082    -46.433655
PR21 -21091.492272 -13019.649750   5986.021852   -198.577278
PR22 -16254.032124  -1699.411056  19610.341069   -105.581088
PR24  13252.691749  18001.582712  12309.769779     37.179336
EOF
